CCSDS_OMM_VERS = 2.0
CREATION_DATE  = 
ORIGINATOR     = 

OBJECT_NAME    = HTV-X1
OBJECT_ID      = 2025-241A
CENTER_NAME    = EARTH
REF_FRAME      = TEME
TIME_SYSTEM    = UTC
MEAN_ELEMENT_THEORY = SGP/SGP4

EPOCH          = 2026-03-26T22:21:12.475296
MEAN_MOTION    = 15.32419147
ECCENTRICITY   = .00073819
INCLINATION    = 51.6383
RA_OF_ASC_NODE = 349.9934
ARG_OF_PERICENTER = 238.0965
MEAN_ANOMALY   = 121.9299

EPHEMERIS_TYPE = 0
CLASSIFICATION_TYPE = U
NORAD_CAT_ID   = 66174
ELEMENT_SET_NO = 999
REV_AT_EPOCH   = 2358
BSTAR          = .93213125E-4
MEAN_MOTION_DOT = .2592E-4
MEAN_MOTION_DDOT = 0

CCSDS_OMM_VERS = 2.0
CREATION_DATE  = 
ORIGINATOR     = 

OBJECT_NAME    = SZ-21 MODULE
OBJECT_ID      = 2025-246C
CENTER_NAME    = EARTH
REF_FRAME      = TEME
TIME_SYSTEM    = UTC
MEAN_ELEMENT_THEORY = SGP/SGP4

EPOCH          = 2026-03-26T10:18:41.505984
MEAN_MOTION    = 15.69816747
ECCENTRICITY   = .00012039
INCLINATION    = 41.4744
RA_OF_ASC_NODE = 100.2120
ARG_OF_PERICENTER = 208.6321
MEAN_ANOMALY   = 151.4455

EPHEMERIS_TYPE = 0
CLASSIFICATION_TYPE = U
NORAD_CAT_ID   = 66515
ELEMENT_SET_NO = 999
REV_AT_EPOCH   = 2070
BSTAR          = .29373547E-3
MEAN_MOTION_DOT = .35932E-3
MEAN_MOTION_DDOT = 0

CCSDS_OMM_VERS = 2.0
CREATION_DATE  = 
ORIGINATOR     = 

OBJECT_NAME    = SHENZHOU-22
OBJECT_ID      = 2025-272A
CENTER_NAME    = EARTH
REF_FRAME      = TEME
TIME_SYSTEM    = UTC
MEAN_ELEMENT_THEORY = SGP/SGP4

EPOCH          = 2026-03-26T22:11:05.870400
MEAN_MOTION    = 15.61531781
ECCENTRICITY   = .00042385
INCLINATION    = 41.4668
RA_OF_ASC_NODE = 103.2237
ARG_OF_PERICENTER = 32.2282
MEAN_ANOMALY   = 327.8815

EPHEMERIS_TYPE = 0
CLASSIFICATION_TYPE = U
NORAD_CAT_ID   = 66645
ELEMENT_SET_NO = 999
REV_AT_EPOCH   = 28028
BSTAR          = .25434846E-3
MEAN_MOTION_DOT = .22168E-3
MEAN_MOTION_DDOT = 0

CCSDS_OMM_VERS = 2.0
CREATION_DATE  = 
ORIGINATOR     = 

OBJECT_NAME    = SOYUZ-MS 28
OBJECT_ID      = 2025-275A
CENTER_NAME    = EARTH
REF_FRAME      = TEME
TIME_SYSTEM    = UTC
MEAN_ELEMENT_THEORY = SGP/SGP4

EPOCH          = 2026-03-26T19:25:42.682656
MEAN_MOTION    = 15.48566257
ECCENTRICITY   = .00062057
INCLINATION    = 51.6341
RA_OF_ASC_NODE = 347.7277
ARG_OF_PERICENTER = 236.0994
MEAN_ANOMALY   = 123.9405

EPHEMERIS_TYPE = 0
CLASSIFICATION_TYPE = U
NORAD_CAT_ID   = 66664
ELEMENT_SET_NO = 999
REV_AT_EPOCH   = 55771
BSTAR          = .24530547E-3
MEAN_MOTION_DOT = .1289E-3
MEAN_MOTION_DDOT = 0

CCSDS_OMM_VERS = 2.0
CREATION_DATE  = 
ORIGINATOR     = 

OBJECT_NAME    = DUPLEX
OBJECT_ID      = 1998-067XS
CENTER_NAME    = EARTH
REF_FRAME      = TEME
TIME_SYSTEM    = UTC
MEAN_ELEMENT_THEORY = SGP/SGP4

EPOCH          = 2026-03-26T23:34:43.057056
MEAN_MOTION    = 15.57326694
ECCENTRICITY   = .00032725
INCLINATION    = 51.6310
RA_OF_ASC_NODE = 342.8841
ARG_OF_PERICENTER = 185.9193
MEAN_ANOMALY   = 174.1760

EPHEMERIS_TYPE = 0
CLASSIFICATION_TYPE = U
NORAD_CAT_ID   = 66906
ELEMENT_SET_NO = 999
REV_AT_EPOCH   = 1782
BSTAR          = .58535178E-3
MEAN_MOTION_DOT = .43353E-3
MEAN_MOTION_DDOT = 0

CCSDS_OMM_VERS = 2.0
CREATION_DATE  = 
ORIGINATOR     = 

OBJECT_NAME    = ISS OBJECT XT
OBJECT_ID      = 1998-067XT
CENTER_NAME    = EARTH
REF_FRAME      = TEME
TIME_SYSTEM    = UTC
MEAN_ELEMENT_THEORY = SGP/SGP4

EPOCH          = 2026-03-26T22:26:25.464480
MEAN_MOTION    = 15.75495053
ECCENTRICITY   = .00056857
INCLINATION    = 51.6251
RA_OF_ASC_NODE = 337.2838
ARG_OF_PERICENTER = 191.5661
MEAN_ANOMALY   = 168.5208

EPHEMERIS_TYPE = 0
CLASSIFICATION_TYPE = U
NORAD_CAT_ID   = 66907
ELEMENT_SET_NO = 999
REV_AT_EPOCH   = 1789
BSTAR          = .13701563E-2
MEAN_MOTION_DOT = .217816E-2
MEAN_MOTION_DDOT = 0

CCSDS_OMM_VERS = 2.0
CREATION_DATE  = 
ORIGINATOR     = 

OBJECT_NAME    = ISS OBJECT XU
OBJECT_ID      = 1998-067XU
CENTER_NAME    = EARTH
REF_FRAME      = TEME
TIME_SYSTEM    = UTC
MEAN_ELEMENT_THEORY = SGP/SGP4

EPOCH          = 2026-03-26T22:21:23.289120
MEAN_MOTION    = 15.75728896
ECCENTRICITY   = .00058818
INCLINATION    = 51.6239
RA_OF_ASC_NODE = 337.2562
ARG_OF_PERICENTER = 191.1451
MEAN_ANOMALY   = 168.9420

EPHEMERIS_TYPE = 0
CLASSIFICATION_TYPE = U
NORAD_CAT_ID   = 66908
ELEMENT_SET_NO = 999
REV_AT_EPOCH   = 1789
BSTAR          = .14554063E-2
MEAN_MOTION_DOT = .23426E-2
MEAN_MOTION_DDOT = 0

CCSDS_OMM_VERS = 2.0
CREATION_DATE  = 
ORIGINATOR     = 

OBJECT_NAME    = SILVERSAT
OBJECT_ID      = 1998-067XV
CENTER_NAME    = EARTH
REF_FRAME      = TEME
TIME_SYSTEM    = UTC
MEAN_ELEMENT_THEORY = SGP/SGP4

EPOCH          = 2026-03-26T21:23:40.721856
MEAN_MOTION    = 15.80614187
ECCENTRICITY   = .00066972
INCLINATION    = 51.6221
RA_OF_ASC_NODE = 336.2271
ARG_OF_PERICENTER = 196.8572
MEAN_ANOMALY   = 163.2209

EPHEMERIS_TYPE = 0
CLASSIFICATION_TYPE = U
NORAD_CAT_ID   = 66909
ELEMENT_SET_NO = 999
REV_AT_EPOCH   = 1790
BSTAR          = .15341052E-2
MEAN_MOTION_DOT = .310372E-2
MEAN_MOTION_DDOT = 0

CCSDS_OMM_VERS = 2.0
CREATION_DATE  = 
ORIGINATOR     = 

OBJECT_NAME    = ISS OBJECT XW
OBJECT_ID      = 1998-067XW
CENTER_NAME    = EARTH
REF_FRAME      = TEME
TIME_SYSTEM    = UTC
MEAN_ELEMENT_THEORY = SGP/SGP4

EPOCH          = 2026-03-26T21:02:51.074592
MEAN_MOTION    = 15.74127542
ECCENTRICITY   = .0006051
INCLINATION    = 51.6241
RA_OF_ASC_NODE = 337.6390
ARG_OF_PERICENTER = 189.0578
MEAN_ANOMALY   = 171.0313

EPHEMERIS_TYPE = 0
CLASSIFICATION_TYPE = U
NORAD_CAT_ID   = 66910
ELEMENT_SET_NO = 999
REV_AT_EPOCH   = 1788
BSTAR          = .1218E-2
MEAN_MOTION_DOT = .181611E-2
MEAN_MOTION_DDOT = 0

CCSDS_OMM_VERS = 2.0
CREATION_DATE  = 
ORIGINATOR     = 

OBJECT_NAME    = ISS OBJECT XX
OBJECT_ID      = 1998-067XX
CENTER_NAME    = EARTH
REF_FRAME      = TEME
TIME_SYSTEM    = UTC
MEAN_ELEMENT_THEORY = SGP/SGP4

EPOCH          = 2026-03-26T23:12:10.288800
MEAN_MOTION    = 15.86754105
ECCENTRICITY   = .00083727
INCLINATION    = 51.6196
RA_OF_ASC_NODE = 334.4469
ARG_OF_PERICENTER = 201.1528
MEAN_ANOMALY   = 158.9131

EPHEMERIS_TYPE = 0
CLASSIFICATION_TYPE = U
NORAD_CAT_ID   = 66911
ELEMENT_SET_NO = 999
REV_AT_EPOCH   = 1792
BSTAR          = .17494148E-2
MEAN_MOTION_DOT = .483451E-2
MEAN_MOTION_DDOT = 0

CCSDS_OMM_VERS = 2.0
CREATION_DATE  = 
ORIGINATOR     = 

OBJECT_NAME    = ISS OBJECT XY
OBJECT_ID      = 1998-067XY
CENTER_NAME    = EARTH
REF_FRAME      = TEME
TIME_SYSTEM    = UTC
MEAN_ELEMENT_THEORY = SGP/SGP4

EPOCH          = 2026-03-26T22:41:57.527808
MEAN_MOTION    = 15.67169157
ECCENTRICITY   = .00041468
INCLINATION    = 51.6275
RA_OF_ASC_NODE = 339.6278
ARG_OF_PERICENTER = 188.9847
MEAN_ANOMALY   = 171.1076

EPHEMERIS_TYPE = 0
CLASSIFICATION_TYPE = U
NORAD_CAT_ID   = 66912
ELEMENT_SET_NO = 999
REV_AT_EPOCH   = 1785
BSTAR          = .10290976E-2
MEAN_MOTION_DOT = .113533E-2
MEAN_MOTION_DDOT = 0

CCSDS_OMM_VERS = 2.0
CREATION_DATE  = 
ORIGINATOR     = 

OBJECT_NAME    = KNACKSAT-2
OBJECT_ID      = 1998-067XZ
CENTER_NAME    = EARTH
REF_FRAME      = TEME
TIME_SYSTEM    = UTC
MEAN_ELEMENT_THEORY = SGP/SGP4

EPOCH          = 2026-03-26T23:28:34.821984
MEAN_MOTION    = 15.53246131
ECCENTRICITY   = .0009919
INCLINATION    = 51.6326
RA_OF_ASC_NODE = 345.8555
ARG_OF_PERICENTER = 248.4821
MEAN_ANOMALY   = 111.5113

EPHEMERIS_TYPE = 0
CLASSIFICATION_TYPE = U
NORAD_CAT_ID   = 67683
ELEMENT_SET_NO = 999
REV_AT_EPOCH   = 747
BSTAR          = .66435148E-3
MEAN_MOTION_DOT = .4242E-3
MEAN_MOTION_DDOT = 0

