HTV-X1                  
1 66174U 25241A   26085.93139439  .00002592  00000+0  93213-4 0  9999
2 66174  51.6383 349.9934 0007381 238.0965 121.9299 15.32419147 23583
SZ-21 MODULE            
1 66515U 25246C   26085.42964706  .00035932  00000+0  29374-3 0  9990
2 66515  41.4744 100.2120 0001203 208.6321 151.4455 15.69816747 20701
SHENZHOU-22             
1 66645U 25272A   26085.92437350  .00022168  00000+0  25435-3 0  9999
2 66645  41.4668 103.2237 0004238  32.2282 327.8815 15.61531781280284
SOYUZ-MS 28             
1 66664U 25275A   26085.80952179  .00012890  00000+0  24531-3 0  9998
2 66664  51.6341 347.7277 0006205 236.0994 123.9405 15.48566257557711
DUPLEX                  
1 66906U 98067XS  26085.98244279  .00043353  00000+0  58535-3 0  9999
2 66906  51.6310 342.8841 0003272 185.9193 174.1760 15.57326694 17827
ISS OBJECT XT           
1 66907U 98067XT  26085.93501695  .00217816  00000+0  13702-2 0  9996
2 66907  51.6251 337.2838 0005685 191.5661 168.5208 15.75495053 17896
ISS OBJECT XU           
1 66908U 98067XU  26085.93151955  .00234260  00000+0  14554-2 0  9995
2 66908  51.6239 337.2562 0005881 191.1451 168.9420 15.75728896 17892
SILVERSAT               
1 66909U 98067XV  26085.89144354  .00310372  00000+0  15341-2 0  9990
2 66909  51.6221 336.2271 0006697 196.8572 163.2209 15.80614187 17900
ISS OBJECT XW           
1 66910U 98067XW  26085.87698003  .00181611  00000+0  12180-2 0  9995
2 66910  51.6241 337.6390 0006051 189.0578 171.0313 15.74127542 17882
ISS OBJECT XX           
1 66911U 98067XX  26085.96678575  .00483451  00000+0  17494-2 0  9998
2 66911  51.6196 334.4469 0008372 201.1528 158.9131 15.86754105 17924
ISS OBJECT XY           
1 66912U 98067XY  26085.94580472  .00113533  00000+0  10291-2 0  9994
2 66912  51.6275 339.6278 0004146 188.9847 171.1076 15.67169157 17852
KNACKSAT-2              
1 67683U 98067XZ  26085.97818081  .00042420  00000+0  66435-3 0  9991
2 67683  51.6326 345.8555 0009919 248.4821 111.5113 15.53246131  7479
